<?xml version="1.0" encoding="UTF-8"?>
<ndm xmlns:xsi="http://www.w3.org/2001/XMLSchema-instance" xsi:noNamespaceSchemaLocation="https://sanaregistry.org/r/ndmxml_unqualified/ndmxml-2.0.0-master-2.0.xsd">
<omm id="CCSDS_OMM_VERS" version="2.0">
<header><CREATION_DATE/><ORIGINATOR/></header><body><segment><metadata><OBJECT_NAME>ORBCOMM FM20</OBJECT_NAME><OBJECT_ID>1998-046D</OBJECT_ID><CENTER_NAME>EARTH</CENTER_NAME><REF_FRAME>TEME</REF_FRAME><TIME_SYSTEM>UTC</TIME_SYSTEM><MEAN_ELEMENT_THEORY>SGP4</MEAN_ELEMENT_THEORY></metadata><data><meanElements><EPOCH>2024-08-10T09:25:56.710272</EPOCH><MEAN_MOTION>14.35549023</MEAN_MOTION><ECCENTRICITY>.0001997</ECCENTRICITY><INCLINATION>44.9927</INCLINATION><RA_OF_ASC_NODE>211.4907</RA_OF_ASC_NODE><ARG_OF_PERICENTER>299.0338</ARG_OF_PERICENTER><MEAN_ANOMALY>61.0308</MEAN_ANOMALY></meanElements><tleParameters><EPHEMERIS_TYPE>0</EPHEMERIS_TYPE><CLASSIFICATION_TYPE>U</CLASSIFICATION_TYPE><NORAD_CAT_ID>25416</NORAD_CAT_ID><ELEMENT_SET_NO>999</ELEMENT_SET_NO><REV_AT_EPOCH>35957</REV_AT_EPOCH><BSTAR>.10242E-2</BSTAR><MEAN_MOTION_DOT>.2836E-4</MEAN_MOTION_DOT><MEAN_MOTION_DDOT>0</MEAN_MOTION_DDOT></tleParameters></data></segment></body></omm>
<omm id="CCSDS_OMM_VERS" version="2.0">
<header><CREATION_DATE/><ORIGINATOR/></header><body><segment><metadata><OBJECT_NAME>ORBCOMM FM16</OBJECT_NAME><OBJECT_ID>1998-046E</OBJECT_ID><CENTER_NAME>EARTH</CENTER_NAME><REF_FRAME>TEME</REF_FRAME><TIME_SYSTEM>UTC</TIME_SYSTEM><MEAN_ELEMENT_THEORY>SGP4</MEAN_ELEMENT_THEORY></metadata><data><meanElements><EPOCH>2024-08-10T13:31:01.692192</EPOCH><MEAN_MOTION>14.36655030</MEAN_MOTION><ECCENTRICITY>.0002655</ECCENTRICITY><INCLINATION>44.9923</INCLINATION><RA_OF_ASC_NODE>205.7201</RA_OF_ASC_NODE><ARG_OF_PERICENTER>211.1403</ARG_OF_PERICENTER><MEAN_ANOMALY>148.9288</MEAN_ANOMALY></meanElements><tleParameters><EPHEMERIS_TYPE>0</EPHEMERIS_TYPE><CLASSIFICATION_TYPE>U</CLASSIFICATION_TYPE><NORAD_CAT_ID>25417</NORAD_CAT_ID><ELEMENT_SET_NO>999</ELEMENT_SET_NO><REV_AT_EPOCH>35954</REV_AT_EPOCH><BSTAR>.16395E-2</BSTAR><MEAN_MOTION_DOT>.4732E-4</MEAN_MOTION_DOT><MEAN_MOTION_DDOT>0</MEAN_MOTION_DDOT></tleParameters></data></segment></body></omm>
<omm id="CCSDS_OMM_VERS" version="2.0">
<header><CREATION_DATE/><ORIGINATOR/></header><body><segment><metadata><OBJECT_NAME>ORBCOMM FM15</OBJECT_NAME><OBJECT_ID>1998-046F</OBJECT_ID><CENTER_NAME>EARTH</CENTER_NAME><REF_FRAME>TEME</REF_FRAME><TIME_SYSTEM>UTC</TIME_SYSTEM><MEAN_ELEMENT_THEORY>SGP4</MEAN_ELEMENT_THEORY></metadata><data><meanElements><EPOCH>2024-08-10T09:34:33.617280</EPOCH><MEAN_MOTION>14.36358570</MEAN_MOTION><ECCENTRICITY>.0002535</ECCENTRICITY><INCLINATION>44.9955</INCLINATION><RA_OF_ASC_NODE>210.7814</RA_OF_ASC_NODE><ARG_OF_PERICENTER>218.7728</ARG_OF_PERICENTER><MEAN_ANOMALY>141.2938</MEAN_ANOMALY></meanElements><tleParameters><EPHEMERIS_TYPE>0</EPHEMERIS_TYPE><CLASSIFICATION_TYPE>U</CLASSIFICATION_TYPE><NORAD_CAT_ID>25418</NORAD_CAT_ID><ELEMENT_SET_NO>999</ELEMENT_SET_NO><REV_AT_EPOCH>35952</REV_AT_EPOCH><BSTAR>.12291E-2</BSTAR><MEAN_MOTION_DOT>.349E-4</MEAN_MOTION_DOT><MEAN_MOTION_DDOT>0</MEAN_MOTION_DDOT></tleParameters></data></segment></body></omm>
<omm id="CCSDS_OMM_VERS" version="2.0">
<header><CREATION_DATE/><ORIGINATOR/></header><body><segment><metadata><OBJECT_NAME>ORBCOMM FM14</OBJECT_NAME><OBJECT_ID>1998-046G</OBJECT_ID><CENTER_NAME>EARTH</CENTER_NAME><REF_FRAME>TEME</REF_FRAME><TIME_SYSTEM>UTC</TIME_SYSTEM><MEAN_ELEMENT_THEORY>SGP4</MEAN_ELEMENT_THEORY></metadata><data><meanElements><EPOCH>2024-08-10T09:52:37.629696</EPOCH><MEAN_MOTION>14.36563340</MEAN_MOTION><ECCENTRICITY>.0001323</ECCENTRICITY><INCLINATION>44.9946</INCLINATION><RA_OF_ASC_NODE>209.6957</RA_OF_ASC_NODE><ARG_OF_PERICENTER>240.0707</ARG_OF_PERICENTER><MEAN_ANOMALY>120.0010</MEAN_ANOMALY></meanElements><tleParameters><EPHEMERIS_TYPE>0</EPHEMERIS_TYPE><CLASSIFICATION_TYPE>U</CLASSIFICATION_TYPE><NORAD_CAT_ID>25419</NORAD_CAT_ID><ELEMENT_SET_NO>999</ELEMENT_SET_NO><REV_AT_EPOCH>35948</REV_AT_EPOCH><BSTAR>.12495E-2</BSTAR><MEAN_MOTION_DOT>.3565E-4</MEAN_MOTION_DOT><MEAN_MOTION_DDOT>0</MEAN_MOTION_DDOT></tleParameters></data></segment></body></omm>
<omm id="CCSDS_OMM_VERS" version="2.0">
<header><CREATION_DATE/><ORIGINATOR/></header><body><segment><metadata><OBJECT_NAME>ORBCOMM FM13</OBJECT_NAME><OBJECT_ID>1998-046H</OBJECT_ID><CENTER_NAME>EARTH</CENTER_NAME><REF_FRAME>TEME</REF_FRAME><TIME_SYSTEM>UTC</TIME_SYSTEM><MEAN_ELEMENT_THEORY>SGP4</MEAN_ELEMENT_THEORY></metadata><data><meanElements><EPOCH>2024-08-10T10:28:18.319296</EPOCH><MEAN_MOTION>14.35768845</MEAN_MOTION><ECCENTRICITY>.0002888</ECCENTRICITY><INCLINATION>44.9958</INCLINATION><RA_OF_ASC_NODE>214.9959</RA_OF_ASC_NODE><ARG_OF_PERICENTER>181.5028</ARG_OF_PERICENTER><MEAN_ANOMALY>178.5811</MEAN_ANOMALY></meanElements><tleParameters><EPHEMERIS_TYPE>0</EPHEMERIS_TYPE><CLASSIFICATION_TYPE>U</CLASSIFICATION_TYPE><NORAD_CAT_ID>25420</NORAD_CAT_ID><ELEMENT_SET_NO>999</ELEMENT_SET_NO><REV_AT_EPOCH>35854</REV_AT_EPOCH><BSTAR>.13916E-2</BSTAR><MEAN_MOTION_DOT>.3922E-4</MEAN_MOTION_DOT><MEAN_MOTION_DDOT>0</MEAN_MOTION_DDOT></tleParameters></data></segment></body></omm>
<omm id="CCSDS_OMM_VERS" version="2.0">
<header><CREATION_DATE/><ORIGINATOR/></header><body><segment><metadata><OBJECT_NAME>ORBCOMM FM21</OBJECT_NAME><OBJECT_ID>1998-053A</OBJECT_ID><CENTER_NAME>EARTH</CENTER_NAME><REF_FRAME>TEME</REF_FRAME><TIME_SYSTEM>UTC</TIME_SYSTEM><MEAN_ELEMENT_THEORY>SGP4</MEAN_ELEMENT_THEORY></metadata><data><meanElements><EPOCH>2024-08-10T14:26:21.955200</EPOCH><MEAN_MOTION>14.35669029</MEAN_MOTION><ECCENTRICITY>.0001816</ECCENTRICITY><INCLINATION>45.0087</INCLINATION><RA_OF_ASC_NODE>298.6822</RA_OF_ASC_NODE><ARG_OF_PERICENTER>234.3882</ARG_OF_PERICENTER><MEAN_ANOMALY>125.6797</MEAN_ANOMALY></meanElements><tleParameters><EPHEMERIS_TYPE>0</EPHEMERIS_TYPE><CLASSIFICATION_TYPE>U</CLASSIFICATION_TYPE><NORAD_CAT_ID>25475</NORAD_CAT_ID><ELEMENT_SET_NO>999</ELEMENT_SET_NO><REV_AT_EPOCH>35258</REV_AT_EPOCH><BSTAR>.11936E-2</BSTAR><MEAN_MOTION_DOT>.3336E-4</MEAN_MOTION_DOT><MEAN_MOTION_DDOT>0</MEAN_MOTION_DDOT></tleParameters></data></segment></body></omm>
<omm id="CCSDS_OMM_VERS" version="2.0">
<header><CREATION_DATE/><ORIGINATOR/></header><body><segment><metadata><OBJECT_NAME>ORBCOMM FM22</OBJECT_NAME><OBJECT_ID>1998-053B</OBJECT_ID><CENTER_NAME>EARTH</CENTER_NAME><REF_FRAME>TEME</REF_FRAME><TIME_SYSTEM>UTC</TIME_SYSTEM><MEAN_ELEMENT_THEORY>SGP4</MEAN_ELEMENT_THEORY></metadata><data><meanElements><EPOCH>2024-08-10T13:01:59.814624</EPOCH><MEAN_MOTION>14.36264090</MEAN_MOTION><ECCENTRICITY>.0001123</ECCENTRICITY><INCLINATION>45.0078</INCLINATION><RA_OF_ASC_NODE>295.8427</RA_OF_ASC_NODE><ARG_OF_PERICENTER>182.1199</ARG_OF_PERICENTER><MEAN_ANOMALY>177.9644</MEAN_ANOMALY></meanElements><tleParameters><EPHEMERIS_TYPE>0</EPHEMERIS_TYPE><CLASSIFICATION_TYPE>U</CLASSIFICATION_TYPE><NORAD_CAT_ID>25476</NORAD_CAT_ID><ELEMENT_SET_NO>999</ELEMENT_SET_NO><REV_AT_EPOCH>35257</REV_AT_EPOCH><BSTAR>.14011E-2</BSTAR><MEAN_MOTION_DOT>.399E-4</MEAN_MOTION_DOT><MEAN_MOTION_DDOT>0</MEAN_MOTION_DDOT></tleParameters></data></segment></body></omm>
<omm id="CCSDS_OMM_VERS" version="2.0">
<header><CREATION_DATE/><ORIGINATOR/></header><body><segment><metadata><OBJECT_NAME>ORBCOMM FM23</OBJECT_NAME><OBJECT_ID>1998-053C</OBJECT_ID><CENTER_NAME>EARTH</CENTER_NAME><REF_FRAME>TEME</REF_FRAME><TIME_SYSTEM>UTC</TIME_SYSTEM><MEAN_ELEMENT_THEORY>SGP4</MEAN_ELEMENT_THEORY></metadata><data><meanElements><EPOCH>2024-08-10T13:22:23.711232</EPOCH><MEAN_MOTION>14.35709427</MEAN_MOTION><ECCENTRICITY>.0001223</ECCENTRICITY><INCLINATION>45.0088</INCLINATION><RA_OF_ASC_NODE>301.2849</RA_OF_ASC_NODE><ARG_OF_PERICENTER>203.7539</ARG_OF_PERICENTER><MEAN_ANOMALY>156.3252</MEAN_ANOMALY></meanElements><tleParameters><EPHEMERIS_TYPE>0</EPHEMERIS_TYPE><CLASSIFICATION_TYPE>U</CLASSIFICATION_TYPE><NORAD_CAT_ID>25477</NORAD_CAT_ID><ELEMENT_SET_NO>999</ELEMENT_SET_NO><REV_AT_EPOCH>35272</REV_AT_EPOCH><BSTAR>.10899E-2</BSTAR><MEAN_MOTION_DOT>.3037E-4</MEAN_MOTION_DOT><MEAN_MOTION_DDOT>0</MEAN_MOTION_DDOT></tleParameters></data></segment></body></omm>

</ndm>
