ORBCOMM FM20            
1 25416U 98046D   24223.39301748  .00002836  00000+0  10242-2 0  9992
2 25416  44.9927 211.4907 0001997 299.0338  61.0308 14.35549023359572
ORBCOMM FM16            
1 25417U 98046E   24223.56321403  .00004732  00000+0  16395-2 0  9994
2 25417  44.9923 205.7201 0002655 211.1403 148.9288 14.36655030359548
ORBCOMM FM15            
1 25418U 98046F   24223.39900020  .00003490  00000+0  12291-2 0  9995
2 25418  44.9955 210.7814 0002535 218.7728 141.2938 14.36358570359525
ORBCOMM FM14            
1 25419U 98046G   24223.41154664  .00003565  00000+0  12495-2 0  9993
2 25419  44.9946 209.6957 0001323 240.0707 120.0010 14.36563340359484
ORBCOMM FM13            
1 25420U 98046H   24223.43632314  .00003922  00000+0  13916-2 0  9996
2 25420  44.9958 214.9959 0002888 181.5028 178.5811 14.35768845358541
ORBCOMM FM21            
1 25475U 98053A   24223.60164300  .00003336  00000+0  11936-2 0  9997
2 25475  45.0087 298.6822 0001816 234.3882 125.6797 14.35669029352587
ORBCOMM FM22            
1 25476U 98053B   24223.54305341  .00003990  00000+0  14011-2 0  9996
2 25476  45.0078 295.8427 0001123 182.1199 177.9644 14.36264090352570
ORBCOMM FM23            
1 25477U 98053C   24223.55721888  .00003037  00000+0  10899-2 0  9998
2 25477  45.0088 301.2849 0001223 203.7539 156.3252 14.35709427352721
